{
  "type": "FeatureCollection",
  "features": [
    {
      "type": "Feature",
      "properties": {
        "norad_id": 30827,
        "name": "FENGYUN 1C DEB",
        "group": "fengyun-1c-debris",
        "lat": -67.02053260554537,
        "lon": 128.59798901323475,
        "alt_km": 760.0435349256159,
        "timestamp": "2025-12-11T05:00:26.587638+00:00",
        "meta_object_name": "FENGYUN 1C DEB",
        "meta_object_id": "1999-025AVM",
        "meta_epoch": "2025-12-09T10:05:57.854400",
        "meta_mean_motion": 14.37705228,
        "meta_eccentricity": 0.00435834,
        "meta_inclination": 99.0031,
        "meta_ra_of_asc_node": 328.6813,
        "meta_arg_of_pericenter": 188.6811,
        "meta_mean_anomaly": 171.3626,
        "meta_ephemeris_type": 0,
        "meta_classification_type": "U",
        "meta_norad_cat_id": 30827,
        "meta_element_set_no": 999,
        "meta_rev_at_epoch": 96501,
        "meta_bstar": 0.0036555562,
        "meta_mean_motion_dot": 0.00011082,
        "meta_mean_motion_ddot": 0,
        "tle_line1": "1 30827U 99025AVM 25343.42080850  .00011082  00000+0  36556-2 0  9997",
        "tle_line2": "2 30827  99.0031 328.6813 0043583 188.6811 171.3626 14.37705228965017"
      },
      "geometry": {
        "type": "Point",
        "coordinates": [
          128.59798901323475,
          -67.02053260554537
        ]
      }
    },
    {
      "type": "Feature",
      "properties": {
        "norad_id": 30828,
        "name": "FENGYUN 1C DEB",
        "group": "fengyun-1c-debris",
        "lat": 49.92526352519397,
        "lon": 82.03106646532058,
        "alt_km": 732.8683540670827,
        "timestamp": "2025-12-11T05:00:26.587648+00:00",
        "meta_object_name": "FENGYUN 1C DEB",
        "meta_object_id": "1999-025AVN",
        "meta_epoch": "2025-12-09T19:19:07.774176",
        "meta_mean_motion": 14.76825103,
        "meta_eccentricity": 0.02094986,
        "meta_inclination": 98.376,
        "meta_ra_of_asc_node": 90.6597,
        "meta_arg_of_pericenter": 188.0963,
        "meta_mean_anomaly": 325.8756,
        "meta_ephemeris_type": 0,
        "meta_classification_type": "U",
        "meta_norad_cat_id": 30828,
        "meta_element_set_no": 999,
        "meta_rev_at_epoch": 98613,
        "meta_bstar": 0.0028081961,
        "meta_mean_motion_dot": 0.00028401,
        "meta_mean_motion_ddot": 0,
        "tle_line1": "1 30828U 99025AVN 25343.80495109  .00028401  00000+0  28082-2 0  9995",
        "tle_line2": "2 30828  98.3760  90.6597 0209498 188.0963 325.8756 14.76825103986139"
      },
      "geometry": {
        "type": "Point",
        "coordinates": [
          82.03106646532058,
          49.92526352519397
        ]
      }
    },
    {
      "type": "Feature",
      "properties": {
        "norad_id": 30829,
        "name": "FENGYUN 1C DEB",
        "group": "fengyun-1c-debris",
        "lat": 67.03517645401517,
        "lon": 179.28000800148232,
        "alt_km": 874.7171450626383,
        "timestamp": "2025-12-11T05:00:26.587659+00:00",
        "meta_object_name": "FENGYUN 1C DEB",
        "meta_object_id": "1999-025AVP",
        "meta_epoch": "2025-12-09T09:51:51.342624",
        "meta_mean_motion": 14.08646778,
        "meta_eccentricity": 0.00356313,
        "meta_inclination": 98.7767,
        "meta_ra_of_asc_node": 336.1491,
        "meta_arg_of_pericenter": 344.1121,
        "meta_mean_anomaly": 15.8928,
        "meta_ephemeris_type": 0,
        "meta_classification_type": "U",
        "meta_norad_cat_id": 30829,
        "meta_element_set_no": 999,
        "meta_rev_at_epoch": 96386,
        "meta_bstar": 0.00080547059,
        "meta_mean_motion_dot": 1.351e-05,
        "meta_mean_motion_ddot": 0,
        "tle_line1": "1 30829U 99025AVP 25343.41101091  .00001351  00000+0  80547-3 0  9997",
        "tle_line2": "2 30829  98.7767 336.1491 0035631 344.1121  15.8928 14.08646778963865"
      },
      "geometry": {
        "type": "Point",
        "coordinates": [
          179.28000800148232,
          67.03517645401517
        ]
      }
    },
    {
      "type": "Feature",
      "properties": {
        "norad_id": 30830,
        "name": "FENGYUN 1C DEB",
        "group": "fengyun-1c-debris",
        "lat": -54.30423166917932,
        "lon": -14.002474118660954,
        "alt_km": 866.8356341574972,
        "timestamp": "2025-12-11T05:00:26.587674+00:00",
        "meta_object_name": "FENGYUN 1C DEB",
        "meta_object_id": "1999-025AVQ",
        "meta_epoch": "2025-12-10T11:20:20.232960",
        "meta_mean_motion": 14.12225994,
        "meta_eccentricity": 0.00305947,
        "meta_inclination": 98.7293,
        "meta_ra_of_asc_node": 332.9327,
        "meta_arg_of_pericenter": 195.2747,
        "meta_mean_anomaly": 328.5387,
        "meta_ephemeris_type": 0,
        "meta_classification_type": "U",
        "meta_norad_cat_id": 30830,
        "meta_element_set_no": 999,
        "meta_rev_at_epoch": 96567,
        "meta_bstar": 0.00039093369,
        "meta_mean_motion_dot": 6.79e-06,
        "meta_mean_motion_ddot": 0,
        "tle_line1": "1 30830U 99025AVQ 25344.47245640  .00000679  00000+0  39093-3 0  9997",
        "tle_line2": "2 30830  98.7293 332.9327 0030594 195.2747 328.5387 14.12225994965677"
      },
      "geometry": {
        "type": "Point",
        "coordinates": [
          -14.002474118660954,
          -54.30423166917932
        ]
      }
    },
    {
      "type": "Feature",
      "properties": {
        "norad_id": 30831,
        "name": "FENGYUN 1C DEB",
        "group": "fengyun-1c-debris",
        "lat": 42.753989651242435,
        "lon": 129.11769593882968,
        "alt_km": 744.788510022131,
        "timestamp": "2025-12-11T05:00:26.587684+00:00",
        "meta_object_name": "FENGYUN 1C DEB",
        "meta_object_id": "1999-025AVR",
        "meta_epoch": "2025-12-08T16:23:58.588800",
        "meta_mean_motion": 14.31074925,
        "meta_eccentricity": 0.00556583,
        "meta_inclination": 99.3281,
        "meta_ra_of_asc_node": 135.1494,
        "meta_arg_of_pericenter": 45.7039,
        "meta_mean_anomaly": 314.8687,
        "meta_ephemeris_type": 0,
        "meta_classification_type": "U",
        "meta_norad_cat_id": 30831,
        "meta_element_set_no": 999,
        "meta_rev_at_epoch": 65192,
        "meta_bstar": 0.00076885394,
        "meta_mean_motion_dot": 2.011e-05,
        "meta_mean_motion_ddot": 0,
        "tle_line1": "1 30831U 99025AVR 25342.68331700  .00002011  00000+0  76885-3 0  9994",
        "tle_line2": "2 30831  99.3281 135.1494 0055658  45.7039 314.8687 14.31074925651929"
      },
      "geometry": {
        "type": "Point",
        "coordinates": [
          129.11769593882968,
          42.753989651242435
        ]
      }
    },
    {
      "type": "Feature",
      "properties": {
        "norad_id": 30833,
        "name": "FENGYUN 1C DEB",
        "group": "fengyun-1c-debris",
        "lat": 79.46942968316473,
        "lon": 62.042059258553785,
        "alt_km": 798.7265209402694,
        "timestamp": "2025-12-11T05:00:26.587694+00:00",
        "meta_object_name": "FENGYUN 1C DEB",
        "meta_object_id": "1999-025AVT",
        "meta_epoch": "2025-12-08T16:00:43.322112",
        "meta_mean_motion": 14.26739556,
        "meta_eccentricity": 0.0032912,
        "meta_inclination": 99.8427,
        "meta_ra_of_asc_node": 128.243,
        "meta_arg_of_pericenter": 192.2268,
        "meta_mean_anomaly": 167.8112,
        "meta_ephemeris_type": 0,
        "meta_classification_type": "U",
        "meta_norad_cat_id": 30833,
        "meta_element_set_no": 999,
        "meta_rev_at_epoch": 64353,
        "meta_bstar": 0.001124,
        "meta_mean_motion_dot": 2.683e-05,
        "meta_mean_motion_ddot": 0,
        "tle_line1": "1 30833U 99025AVT 25342.66716808  .00002683  00000+0  11240-2 0  9998",
        "tle_line2": "2 30833  99.8427 128.2430 0032912 192.2268 167.8112 14.26739556643530"
      },
      "geometry": {
        "type": "Point",
        "coordinates": [
          62.042059258553785,
          79.46942968316473
        ]
      }
    },
    {
      "type": "Feature",
      "properties": {
        "norad_id": 30836,
        "name": "FENGYUN 1C DEB",
        "group": "fengyun-1c-debris",
        "lat": -40.73552257738208,
        "lon": 25.527280492913125,
        "alt_km": 852.777880471107,
        "timestamp": "2025-12-11T05:00:26.587703+00:00",
        "meta_object_name": "FENGYUN 1C DEB",
        "meta_object_id": "1999-025AVW",
        "meta_epoch": "2025-12-10T22:23:58.904160",
        "meta_mean_motion": 14.11930329,
        "meta_eccentricity": 0.00256261,
        "meta_inclination": 98.7453,
        "meta_ra_of_asc_node": 17.641,
        "meta_arg_of_pericenter": 249.9005,
        "meta_mean_anomaly": 109.9409,
        "meta_ephemeris_type": 0,
        "meta_classification_type": "U",
        "meta_norad_cat_id": 30836,
        "meta_element_set_no": 999,
        "meta_rev_at_epoch": 61978,
        "meta_bstar": 0.00049619584,
        "meta_mean_motion_dot": 8.67e-06,
        "meta_mean_motion_ddot": 0,
        "tle_line1": "1 30836U 99025AVW 25344.93332065  .00000867  00000+0  49620-3 0  9998",
        "tle_line2": "2 30836  98.7453  17.6410 0025626 249.9005 109.9409 14.11930329619783"
      },
      "geometry": {
        "type": "Point",
        "coordinates": [
          25.527280492913125,
          -40.73552257738208
        ]
      }
    }
  ]
}